CCSDS_OMM_VERS = 2.0
CREATION_DATE  = 
ORIGINATOR     = 

OBJECT_NAME    = STARLINK-37048
OBJECT_ID      = 2026-049P
CENTER_NAME    = EARTH
REF_FRAME      = TEME
TIME_SYSTEM    = UTC
MEAN_ELEMENT_THEORY = SGP/SGP4

EPOCH          = 2026-04-02T23:05:44.478240
MEAN_MOTION    = 15.80949832
ECCENTRICITY   = .00015834
INCLINATION    = 97.2839
RA_OF_ASC_NODE = 113.4719
ARG_OF_PERICENTER = 125.1715
MEAN_ANOMALY   = 234.9702

EPHEMERIS_TYPE = 0
CLASSIFICATION_TYPE = U
NORAD_CAT_ID   = 68155
ELEMENT_SET_NO = 999
REV_AT_EPOCH   = 324
BSTAR          = .97405884E-3
MEAN_MOTION_DOT = .191764E-2
MEAN_MOTION_DDOT = 0

CCSDS_OMM_VERS = 2.0
CREATION_DATE  = 
ORIGINATOR     = 

OBJECT_NAME    = STARLINK-36313
OBJECT_ID      = 2026-049Q
CENTER_NAME    = EARTH
REF_FRAME      = TEME
TIME_SYSTEM    = UTC
MEAN_ELEMENT_THEORY = SGP/SGP4

EPOCH          = 2026-04-02T21:35:40.753536
MEAN_MOTION    = 15.80892181
ECCENTRICITY   = .00014791
INCLINATION    = 97.2845
RA_OF_ASC_NODE = 113.4035
ARG_OF_PERICENTER = 96.9500
MEAN_ANOMALY   = 263.1936

EPHEMERIS_TYPE = 0
CLASSIFICATION_TYPE = U
NORAD_CAT_ID   = 68156
ELEMENT_SET_NO = 999
REV_AT_EPOCH   = 323
BSTAR          = .44811517E-3
MEAN_MOTION_DOT = .86855E-3
MEAN_MOTION_DDOT = 0

CCSDS_OMM_VERS = 2.0
CREATION_DATE  = 
ORIGINATOR     = 

OBJECT_NAME    = STARLINK-37064
OBJECT_ID      = 2026-049R
CENTER_NAME    = EARTH
REF_FRAME      = TEME
TIME_SYSTEM    = UTC
MEAN_ELEMENT_THEORY = SGP/SGP4

EPOCH          = 2026-04-02T23:08:59.300736
MEAN_MOTION    = 15.80952934
ECCENTRICITY   = .00013922
INCLINATION    = 97.2846
RA_OF_ASC_NODE = 113.4688
ARG_OF_PERICENTER = 71.5264
MEAN_ANOMALY   = 288.6156

EPHEMERIS_TYPE = 0
CLASSIFICATION_TYPE = U
NORAD_CAT_ID   = 68157
ELEMENT_SET_NO = 999
REV_AT_EPOCH   = 324
BSTAR          = .98366174E-3
MEAN_MOTION_DOT = .193726E-2
MEAN_MOTION_DDOT = 0

CCSDS_OMM_VERS = 2.0
CREATION_DATE  = 
ORIGINATOR     = 

OBJECT_NAME    = STARLINK-37069
OBJECT_ID      = 2026-049S
CENTER_NAME    = EARTH
REF_FRAME      = TEME
TIME_SYSTEM    = UTC
MEAN_ELEMENT_THEORY = SGP/SGP4

EPOCH          = 2026-04-02T23:39:27.822816
MEAN_MOTION    = 15.75296126
ECCENTRICITY   = .00012442
INCLINATION    = 97.2852
RA_OF_ASC_NODE = 113.4401
ARG_OF_PERICENTER = 75.8112
MEAN_ANOMALY   = 284.3291

EPHEMERIS_TYPE = 0
CLASSIFICATION_TYPE = U
NORAD_CAT_ID   = 68158
ELEMENT_SET_NO = 999
REV_AT_EPOCH   = 324
BSTAR          = .11128969E-2
MEAN_MOTION_DOT = .169989E-2
MEAN_MOTION_DDOT = 0

CCSDS_OMM_VERS = 2.0
CREATION_DATE  = 
ORIGINATOR     = 

OBJECT_NAME    = STARLINK-37053
OBJECT_ID      = 2026-049T
CENTER_NAME    = EARTH
REF_FRAME      = TEME
TIME_SYSTEM    = UTC
MEAN_ELEMENT_THEORY = SGP/SGP4

EPOCH          = 2026-04-02T23:02:53.296512
MEAN_MOTION    = 15.79406903
ECCENTRICITY   = .00006412
INCLINATION    = 97.2842
RA_OF_ASC_NODE = 113.4741
ARG_OF_PERICENTER = 39.4944
MEAN_ANOMALY   = 320.6370

EPHEMERIS_TYPE = 0
CLASSIFICATION_TYPE = U
NORAD_CAT_ID   = 68159
ELEMENT_SET_NO = 999
REV_AT_EPOCH   = 324
BSTAR          = -.4826183E-2
MEAN_MOTION_DOT = -.792136E-2
MEAN_MOTION_DDOT = 0

CCSDS_OMM_VERS = 2.0
CREATION_DATE  = 
ORIGINATOR     = 

OBJECT_NAME    = STARLINK-36306
OBJECT_ID      = 2026-049U
CENTER_NAME    = EARTH
REF_FRAME      = TEME
TIME_SYSTEM    = UTC
MEAN_ELEMENT_THEORY = SGP/SGP4

EPOCH          = 2026-04-02T22:02:24.173376
MEAN_MOTION    = 15.75262682
ECCENTRICITY   = .00014649
INCLINATION    = 97.2850
RA_OF_ASC_NODE = 113.3789
ARG_OF_PERICENTER = 83.9709
MEAN_ANOMALY   = 276.1723

EPHEMERIS_TYPE = 0
CLASSIFICATION_TYPE = U
NORAD_CAT_ID   = 68160
ELEMENT_SET_NO = 999
REV_AT_EPOCH   = 323
BSTAR          = .88307318E-3
MEAN_MOTION_DOT = .134095E-2
MEAN_MOTION_DDOT = 0

CCSDS_OMM_VERS = 2.0
CREATION_DATE  = 
ORIGINATOR     = 

OBJECT_NAME    = STARLINK-37057
OBJECT_ID      = 2026-049V
CENTER_NAME    = EARTH
REF_FRAME      = TEME
TIME_SYSTEM    = UTC
MEAN_ELEMENT_THEORY = SGP/SGP4

EPOCH          = 2026-04-02T23:04:39.418176
MEAN_MOTION    = 15.80964018
ECCENTRICITY   = .0001854
INCLINATION    = 97.2844
RA_OF_ASC_NODE = 113.4729
ARG_OF_PERICENTER = 104.6199
MEAN_ANOMALY   = 255.5275

EPHEMERIS_TYPE = 0
CLASSIFICATION_TYPE = U
NORAD_CAT_ID   = 68161
ELEMENT_SET_NO = 999
REV_AT_EPOCH   = 324
BSTAR          = .91075224E-3
MEAN_MOTION_DOT = .17915E-2
MEAN_MOTION_DDOT = 0

CCSDS_OMM_VERS = 2.0
CREATION_DATE  = 
ORIGINATOR     = 

OBJECT_NAME    = STARLINK-37013
OBJECT_ID      = 2026-049W
CENTER_NAME    = EARTH
REF_FRAME      = TEME
TIME_SYSTEM    = UTC
MEAN_ELEMENT_THEORY = SGP/SGP4

EPOCH          = 2026-04-02T22:57:07.240320
MEAN_MOTION    = 15.80954028
ECCENTRICITY   = .00011634
INCLINATION    = 97.2847
RA_OF_ASC_NODE = 113.4794
ARG_OF_PERICENTER = 85.2880
MEAN_ANOMALY   = 274.8521

EPHEMERIS_TYPE = 0
CLASSIFICATION_TYPE = U
NORAD_CAT_ID   = 68162
ELEMENT_SET_NO = 999
REV_AT_EPOCH   = 324
BSTAR          = .15438915E-2
MEAN_MOTION_DOT = .308215E-2
MEAN_MOTION_DDOT = 0

CCSDS_OMM_VERS = 2.0
CREATION_DATE  = 
ORIGINATOR     = 

OBJECT_NAME    = STARLINK-36958
OBJECT_ID      = 2026-049X
CENTER_NAME    = EARTH
REF_FRAME      = TEME
TIME_SYSTEM    = UTC
MEAN_ELEMENT_THEORY = SGP/SGP4

EPOCH          = 2026-04-02T22:00:01.999584
MEAN_MOTION    = 15.75108361
ECCENTRICITY   = .00011196
INCLINATION    = 97.2841
RA_OF_ASC_NODE = 113.4284
ARG_OF_PERICENTER = 76.8468
MEAN_ANOMALY   = 29.9410

EPHEMERIS_TYPE = 0
CLASSIFICATION_TYPE = U
NORAD_CAT_ID   = 68163
ELEMENT_SET_NO = 999
REV_AT_EPOCH   = 451
BSTAR          = .63061408E-3
MEAN_MOTION_DOT = .94643E-3
MEAN_MOTION_DDOT = 0

CCSDS_OMM_VERS = 2.0
CREATION_DATE  = 
ORIGINATOR     = 

OBJECT_NAME    = STARLINK-37002
OBJECT_ID      = 2026-049Y
CENTER_NAME    = EARTH
REF_FRAME      = TEME
TIME_SYSTEM    = UTC
MEAN_ELEMENT_THEORY = SGP/SGP4

EPOCH          = 2026-04-02T21:29:11.048928
MEAN_MOTION    = 15.80908305
ECCENTRICITY   = .00016568
INCLINATION    = 97.2842
RA_OF_ASC_NODE = 113.4099
ARG_OF_PERICENTER = 118.0709
MEAN_ANOMALY   = 242.0727

EPHEMERIS_TYPE = 0
CLASSIFICATION_TYPE = U
NORAD_CAT_ID   = 68164
ELEMENT_SET_NO = 999
REV_AT_EPOCH   = 323
BSTAR          = .58607909E-3
MEAN_MOTION_DOT = .114081E-2
MEAN_MOTION_DDOT = 0

CCSDS_OMM_VERS = 2.0
CREATION_DATE  = 
ORIGINATOR     = 

OBJECT_NAME    = STARLINK-36971
OBJECT_ID      = 2026-049Z
CENTER_NAME    = EARTH
REF_FRAME      = TEME
TIME_SYSTEM    = UTC
MEAN_ELEMENT_THEORY = SGP/SGP4

EPOCH          = 2026-04-02T22:00:01.999584
MEAN_MOTION    = 15.75170862
ECCENTRICITY   = .00012727
INCLINATION    = 97.2849
RA_OF_ASC_NODE = 113.4141
ARG_OF_PERICENTER = 118.0691
MEAN_ANOMALY   = 312.7433

EPHEMERIS_TYPE = 0
CLASSIFICATION_TYPE = U
NORAD_CAT_ID   = 68165
ELEMENT_SET_NO = 999
REV_AT_EPOCH   = 451
BSTAR          = -.13171999E-3
MEAN_MOTION_DOT = -.19715E-3
MEAN_MOTION_DDOT = 0

CCSDS_OMM_VERS = 2.0
CREATION_DATE  = 
ORIGINATOR     = 

OBJECT_NAME    = STARLINK-36273
OBJECT_ID      = 2026-049AA
CENTER_NAME    = EARTH
REF_FRAME      = TEME
TIME_SYSTEM    = UTC
MEAN_ELEMENT_THEORY = SGP/SGP4

EPOCH          = 2026-04-02T22:01:22.787040
MEAN_MOTION    = 15.75226596
ECCENTRICITY   = .00012178
INCLINATION    = 97.2851
RA_OF_ASC_NODE = 113.3797
ARG_OF_PERICENTER = 76.1436
MEAN_ANOMALY   = 283.9965

EPHEMERIS_TYPE = 0
CLASSIFICATION_TYPE = U
NORAD_CAT_ID   = 68166
ELEMENT_SET_NO = 999
REV_AT_EPOCH   = 323
BSTAR          = .15078752E-3
MEAN_MOTION_DOT = .22456E-3
MEAN_MOTION_DDOT = 0

