STARLINK-37048          
1 68155U 26049P   26092.96232035  .00191764  00000+0  97406-3 0  9991
2 68155  97.2839 113.4719 0001583 125.1715 234.9702 15.80949832  3245
STARLINK-36313          
1 68156U 26049Q   26092.89977724  .00086855  00000+0  44812-3 0  9992
2 68156  97.2845 113.4035 0001479  96.9500 263.1936 15.80892181  3231
STARLINK-37064          
1 68157U 26049R   26092.96457524  .00193726  00000+0  98366-3 0  9991
2 68157  97.2846 113.4688 0001392  71.5264 288.6156 15.80952934  3247
STARLINK-37069          
1 68158U 26049S   26092.98573869  .00169989  00000+0  11129-2 0  9990
2 68158  97.2852 113.4401 0001244  75.8112 284.3291 15.75296126  3244
STARLINK-37053          
1 68159U 26049T   26092.96033908 -.00792136  00000+0 -48262-2 0  9990
2 68159  97.2842 113.4741 0000641  39.4944 320.6370 15.79406903  3242
STARLINK-36306          
1 68160U 26049U   26092.91833534  .00134095  00000+0  88307-3 0  9997
2 68160  97.2850 113.3789 0001464  83.9709 276.1723 15.75262682  3237
STARLINK-37057          
1 68161U 26049V   26092.96156734  .00179150  00000+0  91075-3 0  9990
2 68161  97.2844 113.4729 0001854 104.6199 255.5275 15.80964018  3245
STARLINK-37013          
1 68162U 26049W   26092.95633380  .00308215  00000+0  15439-2 0  9992
2 68162  97.2847 113.4794 0001163  85.2880 274.8521 15.80954028  3243
STARLINK-36958          
1 68163U 26049X   26092.91668981  .00094643  00000+0  63061-3 0  9996
2 68163  97.2841 113.4284 0001119  76.8468  29.9410 15.75108361  4513
STARLINK-37002          
1 68164U 26049Y   26092.89526677  .00114081  00000+0  58608-3 0  9999
2 68164  97.2842 113.4099 0001656 118.0709 242.0727 15.80908305  3231
STARLINK-36971          
1 68165U 26049Z   26092.91668981 -.00019715  00000+0 -13172-3 0  9995
2 68165  97.2849 113.4141 0001272 118.0691 312.7433 15.75170862  4515
STARLINK-36273          
1 68166U 26049AA  26092.91762485  .00022456  00000+0  15079-3 0  9992
2 68166  97.2851 113.3797 0001217  76.1436 283.9965 15.75226596  3238
